GLOBALSTAR M023         
1 25621U 99004A   25150.64681597 -.00000047  00000+0  31571-3 0  9998
2 25621  52.0095 106.8507 0009704  84.4985  86.6617 12.62505179213608
GLOBALSTAR M040         
1 25622U 99004B   25150.29745381 -.00000107  00000+0 -19523-4 0  9994
2 25622  51.9901 112.0428 0001157   4.2509 161.9740 12.62011051212996
GLOBALSTAR M036         
1 25623U 99004C   25150.67804226  .00000025  00000+0  15731-2 0  9993
2 25623  51.9974 286.4729 0010994  22.9886 350.3647 11.86601616176908
GLOBALSTAR M038         
1 25624U 99004D   25151.21712274 -.00000081  00000+0  11268-3 0  9991
2 25624  51.9952 120.4421 0002150  16.6299 356.9604 12.32527771200245
GLOBALSTAR M022         
1 25649U 99012A   25151.22596352 -.00000081  00000+0  68211-4 0  9996
2 25649  52.0062 337.0100 0003191 130.6930  41.3546 12.02500088174419
GLOBALSTAR M041         
1 25650U 99012B   25151.17875505 -.00000038  00000+0  60962-3 0  9998
2 25650  52.0005 218.0751 0001525 271.5745  88.4917 11.96679814176485
GLOBALSTAR M046         
1 25651U 99012C   25150.64684446 -.00000195  00000+0 -11725-2 0  9999
2 25651  52.0061 289.3587 0002127 199.0214 174.2046 12.09408732181544
GLOBALSTAR M037         
1 25652U 99012D   25151.22463272 -.00000051  00000+0  29681-3 0  9998
2 25652  51.9997 235.7197 0002513 150.3581 228.2927 12.62445539209183
